SAUDISAT 1C (SO-50)     
1 27607U 02058C   26163.30015445  .00000989  00000+0  13385-3 0  9995
2 27607  64.5507 144.1057 0075371 263.3766  95.8757 14.83036938263736
SAUDISAT 2              
1 28371U 04025F   26163.28940090  .00000263  00000+0  69889-4 0  9996
2 28371  98.5507 163.1447 0023789 313.9595  45.9639 14.56681326165030
SAUDISAT 3              
1 31118U 07012B   26163.29452392  .00000241  00000+0  47078-4 0  9994
2 31118  98.1454 113.6919 0013411 240.6918 119.2949 14.71423013 27029
PISAT                   
1 41784U 16059B   26163.23967385  .00000877  00000+0  15688-3 0  9998
2 41784  97.8179 163.9051 0028001 219.0521 140.8664 14.68975851519012
FLYING LAPTOP           
1 42831U 17042G   26163.31946583  .00003157  00000+0  25010-3 0  9995
2 42831  97.4663 319.0404 0019326 137.4850 222.7875 15.01113866485726
SALSAT                  
1 46495U 20068K   26163.23969061  .00008047  00000+0  28202-3 0  9993
2 46495  97.8848 166.0033 0008469 328.8216  31.2520 15.29730151314601
